OBJECT_NAME,OBJECT_ID,EPOCH,MEAN_MOTION,ECCENTRICITY,INCLINATION,RA_OF_ASC_NODE,ARG_OF_PERICENTER,MEAN_ANOMALY,EPHEMERIS_TYPE,CLASSIFICATION_TYPE,NORAD_CAT_ID,ELEMENT_SET_NO,REV_AT_EPOCH,BSTAR,MEAN_MOTION_DOT,MEAN_MOTION_DDOT
STARLINK-4586,2022-104BA,2024-08-16T08:03:24.148224,15.08895304,0.0001885,53.2167,264.3725,70.951,289.1686,0,U,53636,999,11012,0.0016528,0.00026154,0
STARLINK-4396,2022-104BB,2024-08-16T08:52:29.996832,15.08856963,0.0001335,53.2149,264.5729,128.2911,231.8201,0,U,53637,999,11012,0.00018814,2.709e-05,0
STARLINK-4594,2022-104BC,2024-08-16T09:12:13.726944,15.08864386,0.0001184,53.2148,263.9599,95.3975,264.7152,0,U,53638,999,11013,0.00046428,7.114e-05,0
STARLINK-4422,2022-104BD,2024-08-16T07:58:03.268992,15.08859043,0.0001353,53.2158,264.3459,61.022,299.0908,0,U,53639,999,10995,0.00018612,2.677e-05,0
STARLINK-4597,2022-104BE,2024-08-16T09:28:09.159744,15.08872557,0.0001553,53.215,264.0273,112.8408,247.2748,0,U,53640,999,11013,0.00081495,0.00012717,0
STARLINK-4588,2022-104BF,2024-08-16T08:08:40.462080,15.08848291,0.0001735,53.2146,264.3914,84.3708,275.7482,0,U,53641,999,11012,-4.3377e-05,-9.79e-06,0
STARLINK-4622,2022-105A,2024-08-16T05:36:55.962720,15.01282403,0.0001048,97.6563,109.1971,90.2674,269.867,0,U,53648,999,10765,-3.3314e-05,-4.87e-06,0
STARLINK-4386,2022-105B,2024-08-16T05:34:15.516192,15.01271177,4.62e-05,97.6577,109.1957,152.1841,207.9408,0,U,53649,999,10764,0.00020874,2.624e-05,0
STARLINK-4380,2022-105C,2024-08-16T05:31:36.725952,15.01285888,8.61e-05,97.6575,109.1958,90.0006,270.1317,0,U,53650,999,10764,0.00083805,0.00010729,0
STARLINK-4388,2022-105D,2024-08-16T05:28:56.785728,15.01281279,0.0001412,97.6575,109.1952,81.0623,279.0761,0,U,53651,999,10764,0.00059031,7.535e-05,0
STARLINK-4374,2022-105E,2024-08-16T05:26:16.683072,15.01283074,0.0001285,97.6592,109.1965,74.3764,285.7602,0,U,53652,999,10764,0.00068153,8.711e-05,0
STARLINK-4390,2022-105F,2024-08-16T05:52:57.024480,15.0129052,9.32e-05,97.6559,109.1634,86.7239,273.4092,0,U,53653,999,10764,0.00099641,0.00012772,0
STARLINK-4420,2022-105G,2024-08-16T05:18:17.214048,15.01291207,0.0001703,97.6582,109.1992,68.1524,291.9881,0,U,53654,999,10764,0.00072994,9.337e-05,0
STARLINK-4470,2022-105H,2024-08-16T05:23:36.757536,15.01261547,0.0001682,97.6591,109.1983,78.5264,281.6149,0,U,53655,999,10764,0.00029992,3.795e-05,0
STARLINK-4466,2022-105J,2024-08-16T05:10:17.690592,15.01293082,0.0002309,97.657,109.202,74.5397,285.6082,0,U,53656,999,10764,0.00097073,0.00012442,0
STARLINK-4469,2022-105K,2024-08-16T05:20:57.473952,15.01296076,0.0002199,97.6587,109.199,69.9945,290.1516,0,U,53657,999,10764,0.0011267,0.00014456,0
STARLINK-4452,2022-105L,2024-08-16T05:12:57.466656,15.01271275,0.0001893,97.6569,109.1979,75.5371,284.6063,0,U,53658,999,10764,0.0004139,5.263e-05,0
STARLINK-4463,2022-105M,2024-08-16T05:15:57.713472,15.01287064,0.0001416,97.6539,109.1974,88.1656,271.9731,0,U,53659,999,10792,0.00027064,3.421e-05,0
STARLINK-4473,2022-105N,2024-08-16T05:04:57.957888,15.01294034,0.0002809,97.6568,109.194,75.4332,284.7203,0,U,53660,999,10764,0.0010495,0.00013459,0
STARLINK-4472,2022-105P,2024-08-16T05:07:57.777888,15.01275941,0.0002567,97.655,109.1996,101.311,258.8403,0,U,53661,999,10764,0.00025098,3.168e-05,0
STARLINK-4357,2022-105Q,2024-08-16T04:59:58.369344,15.01270841,0.0004227,97.6557,109.1863,90.7372,269.4337,0,U,53662,999,10764,0.00019092,2.395e-05,0
STARLINK-4457,2022-105R,2024-08-16T05:07:37.222464,15.01268542,0.0002349,97.6559,109.1954,95.5228,264.6264,0,U,53663,999,10764,0.00036087,4.58e-05,0
STARLINK-4471,2022-105S,2024-08-16T06:30:36.940032,15.01270787,0.0003813,97.6547,109.2526,92.2984,267.8677,0,U,53664,999,10765,0.00017266,2.16e-05,0
STARLINK-4334,2022-105T,2024-08-16T06:32:55.725216,15.01273431,0.000376,97.6551,109.261,93.4194,266.746,0,U,53665,999,10765,0.00021852,2.75e-05,0
STARLINK-4449,2022-105U,2024-08-16T06:24:55.871712,15.01260029,0.0004348,97.6536,109.2457,62.6565,297.5102,0,U,53666,999,10765,4.4562e-05,5.13e-06,0
STARLINK-4406,2022-105V,2024-08-16T21:02:04.239744,15.01303436,0.0003279,97.6563,109.849,95.0459,265.114,0,U,53667,999,10802,0.0011547,0.00014821,0
STARLINK-4458,2022-105W,2024-08-16T04:51:38.541024,15.01293202,0.0004115,97.6537,109.1524,91.3281,268.8414,0,U,53668,999,10764,0.0010199,0.00013078,0
STARLINK-4464,2022-105X,2024-08-16T04:59:37.644576,15.01276127,0.000416,97.6556,109.1794,90.1967,269.9734,0,U,53669,999,10764,0.00029736,3.764e-05,0
STARLINK-4459,2022-105Y,2024-08-16T06:22:16.952736,15.01248315,0.0005715,97.652,109.2355,87.1819,273.0059,0,U,53670,999,10765,-0.00051312,-6.644e-05,0
STARLINK-4440,2022-105Z,2024-08-16T04:46:38.592192,15.01250096,0.0004627,97.6542,109.1745,91.6458,268.5297,0,U,53671,999,10764,-2.903e-05,-4.32e-06,0
