STARLINK-4586           
1 53636U 22104BA  24229.33569616  .00026154  00000+0  16528-2 0  9991
2 53636  53.2167 264.3725 0001885  70.9510 289.1686 15.08895304110120
STARLINK-4396           
1 53637U 22104BB  24229.36979163  .00002709  00000+0  18814-3 0  9998
2 53637  53.2149 264.5729 0001335 128.2911 231.8201 15.08856963110124
STARLINK-4594           
1 53638U 22104BC  24229.38349221  .00007114  00000+0  46428-3 0  9994
2 53638  53.2148 263.9599 0001184  95.3975 264.7152 15.08864386110137
STARLINK-4422           
1 53639U 22104BD  24229.33198228  .00002677  00000+0  18612-3 0  9992
2 53639  53.2158 264.3459 0001353  61.0220 299.0908 15.08859043109952
STARLINK-4597           
1 53640U 22104BE  24229.39455046  .00012717  00000+0  81495-3 0  9999
2 53640  53.2150 264.0273 0001553 112.8408 247.2748 15.08872557110136
STARLINK-4588           
1 53641U 22104BF  24229.33935720 -.00000979  00000+0 -43377-4 0  9993
2 53641  53.2146 264.3914 0001735  84.3708 275.7482 15.08848291110123
STARLINK-4622           
1 53648U 22105A   24229.23398105 -.00000487  00000+0 -33314-4 0  9994
2 53648  97.6563 109.1971 0001048  90.2674 269.8670 15.01282403107656
STARLINK-4386           
1 53649U 22105B   24229.23212403  .00002624  00000+0  20874-3 0  9990
2 53649  97.6577 109.1957 0000462 152.1841 207.9408 15.01271177107646
STARLINK-4380           
1 53650U 22105C   24229.23028618  .00010729  00000+0  83805-3 0  9993
2 53650  97.6575 109.1958 0000861  90.0006 270.1317 15.01285888107648
STARLINK-4388           
1 53651U 22105D   24229.22843502  .00007535  00000+0  59031-3 0  9995
2 53651  97.6575 109.1952 0001412  81.0623 279.0761 15.01281279107642
STARLINK-4374           
1 53652U 22105E   24229.22658198  .00008711  00000+0  68153-3 0  9993
2 53652  97.6592 109.1965 0001285  74.3764 285.7602 15.01283074107648
STARLINK-4390           
1 53653U 22105F   24229.24510445  .00012772  00000+0  99641-3 0  9996
2 53653  97.6559 109.1634 0000932  86.7239 273.4092 15.01290520107648
STARLINK-4420           
1 53654U 22105G   24229.22103257  .00009337  00000+0  72994-3 0  9999
2 53654  97.6582 109.1992 0001703  68.1524 291.9881 15.01291207107644
STARLINK-4470           
1 53655U 22105H   24229.22473099  .00003795  00000+0  29992-3 0  9996
2 53655  97.6591 109.1983 0001682  78.5264 281.6149 15.01261547107644
STARLINK-4466           
1 53656U 22105J   24229.21548253  .00012442  00000+0  97073-3 0  9995
2 53656  97.6570 109.2020 0002309  74.5397 285.6082 15.01293082107644
STARLINK-4469           
1 53657U 22105K   24229.22288743  .00014456  00000+0  11267-2 0  9999
2 53657  97.6587 109.1990 0002199  69.9945 290.1516 15.01296076107641
STARLINK-4452           
1 53658U 22105L   24229.21733179  .00005263  00000+0  41390-3 0  9994
2 53658  97.6569 109.1979 0001893  75.5371 284.6063 15.01271275107644
STARLINK-4463           
1 53659U 22105M   24229.21941798  .00003421  00000+0  27064-3 0  9999
2 53659  97.6539 109.1974 0001416  88.1656 271.9731 15.01287064107929
STARLINK-4473           
1 53660U 22105N   24229.21178192  .00013459  00000+0  10495-2 0  9992
2 53660  97.6568 109.1940 0002809  75.4332 284.7203 15.01294034107643
STARLINK-4472           
1 53661U 22105P   24229.21386317  .00003168  00000+0  25098-3 0  9995
2 53661  97.6550 109.1996 0002567 101.3110 258.8403 15.01275941107640
STARLINK-4357           
1 53662U 22105Q   24229.20831446  .00002395  00000+0  19092-3 0  9991
2 53662  97.6557 109.1863 0004227  90.7372 269.4337 15.01270841107645
STARLINK-4457           
1 53663U 22105R   24229.21362526  .00004580  00000+0  36087-3 0  9992
2 53663  97.6559 109.1954 0002349  95.5228 264.6264 15.01268542107646
STARLINK-4471           
1 53664U 22105S   24229.27126088  .00002160  00000+0  17266-3 0  9990
2 53664  97.6547 109.2526 0003813  92.2984 267.8677 15.01270787107658
STARLINK-4334           
1 53665U 22105T   24229.27286719  .00002750  00000+0  21852-3 0  9990
2 53665  97.6551 109.2610 0003760  93.4194 266.7460 15.01273431107652
STARLINK-4449           
1 53666U 22105U   24229.26731333  .00000513  00000+0  44562-4 0  9996
2 53666  97.6536 109.2457 0004348  62.6565 297.5102 15.01260029107652
STARLINK-4406           
1 53667U 22105V   24229.87643796  .00014821  00000+0  11547-2 0  9991
2 53667  97.6563 109.8490 0003279  95.0459 265.1140 15.01303436108025
STARLINK-4458           
1 53668U 22105W   24229.20252941  .00013078  00000+0  10199-2 0  9992
2 53668  97.6537 109.1524 0004115  91.3281 268.8414 15.01293202107640
STARLINK-4464           
1 53669U 22105X   24229.20807459  .00003764  00000+0  29736-3 0  9992
2 53669  97.6556 109.1794 0004160  90.1967 269.9734 15.01276127107643
STARLINK-4459           
1 53670U 22105Y   24229.26547399 -.00006644  00000+0 -51312-3 0  9991
2 53670  97.6520 109.2355 0005715  87.1819 273.0059 15.01248315107654
STARLINK-4440           
1 53671U 22105Z   24229.19905778 -.00000432  00000+0 -29030-4 0  9995
2 53671  97.6542 109.1745 0004627  91.6458 268.5297 15.01250096107642
